STARLINK-36917          
1 68059U 26041V   26082.12964894  .00252029  00000+0  15948-2 0  9990
2 68059  53.1586 354.8161 0001424  40.2353 319.8772 15.75309607  3344
STARLINK-36959          
1 68060U 26041W   26082.19795534  .00199397  00000+0  12706-2 0  9999
2 68060  53.1591 354.5322 0001190  87.0637 273.0520 15.75308553  3354
STARLINK-36915          
1 68061U 26041X   26082.16668981 -.00085540  00000+0 -55886-3 0  9995
2 68061  53.1588 354.4786 0001165  97.4365 188.2805 15.75264371  4543
STARLINK-36952          
1 68062U 26041Y   26082.01182819  .00293133  00000+0  18383-2 0  9998
2 68062  53.1597 355.5069 0001337  54.5398 305.5747 15.75395849  3320
STARLINK-37000          
1 68063U 26041Z   26081.61267051  .00366040  00000+0  20764-2 0  9990
2 68063  53.1590 357.2758 0008081 264.0106  95.9995 15.77440933  3261
STARLINK-36996          
1 68064U 26041AA  26082.23540588  .00646913  00000+0  29875-2 0  9991
2 68064  53.1585 354.0436 0000609  69.7220 290.3869 15.81263766  3363
STARLINK-36836          
1 68065U 26041AB  26082.17071725  .00339249  00000+0  16445-2 0  9997
2 68065  53.1586 354.3502 0000659  99.5905 260.5192 15.81019160  3352
STARLINK-36976          
1 68066U 26041AC  26082.12997425  .00239737  00000+0  15189-2 0  9992
2 68066  53.1585 354.8167 0001654  91.7258 268.3952 15.75319077  3347
STARLINK-36929          
1 68067U 26041AD  26082.00729637  .00545000  00000+0  33361-2 0  9993
2 68067  53.1593 355.4759 0001410  25.9810 334.1281 15.75234194  3325
STARLINK-36990          
1 68068U 26041AE  26082.29564691  .00312076  00000+0  15157-2 0  9990
2 68068  53.1589 353.7061 0000794  30.6523 329.4546 15.81051199  3371
STARLINK-36766          
1 68069U 26042A   26082.22518173  .00388352  00000+0  18703-2 0  9999
2 68069  53.1573 126.9434 0000826  81.5752 278.5364 15.81030771  4224
STARLINK-36823          
1 68070U 26042B   26082.16121427  .00765502  00000+0  34933-2 0  9995
2 68070  53.1571 127.2546 0001034 195.8185 164.2806 15.81215590  4218
