CCSDS_OMM_VERS = 2.0
CREATION_DATE  = 
ORIGINATOR     = 

OBJECT_NAME    = STARLINK-36917
OBJECT_ID      = 2026-041V
CENTER_NAME    = EARTH
REF_FRAME      = TEME
TIME_SYSTEM    = UTC
MEAN_ELEMENT_THEORY = SGP/SGP4

EPOCH          = 2026-03-23T03:06:41.668416
MEAN_MOTION    = 15.75309607
ECCENTRICITY   = .00014241
INCLINATION    = 53.1586
RA_OF_ASC_NODE = 354.8161
ARG_OF_PERICENTER = 40.2353
MEAN_ANOMALY   = 319.8772

EPHEMERIS_TYPE = 0
CLASSIFICATION_TYPE = U
NORAD_CAT_ID   = 68059
ELEMENT_SET_NO = 999
REV_AT_EPOCH   = 334
BSTAR          = .15948433E-2
MEAN_MOTION_DOT = .252029E-2
MEAN_MOTION_DDOT = 0

CCSDS_OMM_VERS = 2.0
CREATION_DATE  = 
ORIGINATOR     = 

OBJECT_NAME    = STARLINK-36959
OBJECT_ID      = 2026-041W
CENTER_NAME    = EARTH
REF_FRAME      = TEME
TIME_SYSTEM    = UTC
MEAN_ELEMENT_THEORY = SGP/SGP4

EPOCH          = 2026-03-23T04:45:03.341376
MEAN_MOTION    = 15.75308553
ECCENTRICITY   = .00011903
INCLINATION    = 53.1591
RA_OF_ASC_NODE = 354.5322
ARG_OF_PERICENTER = 87.0637
MEAN_ANOMALY   = 273.0520

EPHEMERIS_TYPE = 0
CLASSIFICATION_TYPE = U
NORAD_CAT_ID   = 68060
ELEMENT_SET_NO = 999
REV_AT_EPOCH   = 335
BSTAR          = .1270636E-2
MEAN_MOTION_DOT = .199397E-2
MEAN_MOTION_DDOT = 0

CCSDS_OMM_VERS = 2.0
CREATION_DATE  = 
ORIGINATOR     = 

OBJECT_NAME    = STARLINK-36915
OBJECT_ID      = 2026-041X
CENTER_NAME    = EARTH
REF_FRAME      = TEME
TIME_SYSTEM    = UTC
MEAN_ELEMENT_THEORY = SGP/SGP4

EPOCH          = 2026-03-23T04:00:01.999584
MEAN_MOTION    = 15.75264371
ECCENTRICITY   = .00011656
INCLINATION    = 53.1588
RA_OF_ASC_NODE = 354.4786
ARG_OF_PERICENTER = 97.4365
MEAN_ANOMALY   = 188.2805

EPHEMERIS_TYPE = 0
CLASSIFICATION_TYPE = U
NORAD_CAT_ID   = 68061
ELEMENT_SET_NO = 999
REV_AT_EPOCH   = 454
BSTAR          = -.5588646E-3
MEAN_MOTION_DOT = -.8554E-3
MEAN_MOTION_DDOT = 0

CCSDS_OMM_VERS = 2.0
CREATION_DATE  = 
ORIGINATOR     = 

OBJECT_NAME    = STARLINK-36952
OBJECT_ID      = 2026-041Y
CENTER_NAME    = EARTH
REF_FRAME      = TEME
TIME_SYSTEM    = UTC
MEAN_ELEMENT_THEORY = SGP/SGP4

EPOCH          = 2026-03-23T00:17:01.955616
MEAN_MOTION    = 15.75395849
ECCENTRICITY   = .00013373
INCLINATION    = 53.1597
RA_OF_ASC_NODE = 355.5069
ARG_OF_PERICENTER = 54.5398
MEAN_ANOMALY   = 305.5747

EPHEMERIS_TYPE = 0
CLASSIFICATION_TYPE = U
NORAD_CAT_ID   = 68062
ELEMENT_SET_NO = 999
REV_AT_EPOCH   = 332
BSTAR          = .18382926E-2
MEAN_MOTION_DOT = .293133E-2
MEAN_MOTION_DDOT = 0

CCSDS_OMM_VERS = 2.0
CREATION_DATE  = 
ORIGINATOR     = 

OBJECT_NAME    = STARLINK-37000
OBJECT_ID      = 2026-041Z
CENTER_NAME    = EARTH
REF_FRAME      = TEME
TIME_SYSTEM    = UTC
MEAN_ELEMENT_THEORY = SGP/SGP4

EPOCH          = 2026-03-22T14:42:14.732064
MEAN_MOTION    = 15.77440933
ECCENTRICITY   = .00080812
INCLINATION    = 53.1590
RA_OF_ASC_NODE = 357.2758
ARG_OF_PERICENTER = 264.0106
MEAN_ANOMALY   = 95.9995

EPHEMERIS_TYPE = 0
CLASSIFICATION_TYPE = U
NORAD_CAT_ID   = 68063
ELEMENT_SET_NO = 999
REV_AT_EPOCH   = 326
BSTAR          = .20763991E-2
MEAN_MOTION_DOT = .36604E-2
MEAN_MOTION_DDOT = 0

CCSDS_OMM_VERS = 2.0
CREATION_DATE  = 
ORIGINATOR     = 

OBJECT_NAME    = STARLINK-36996
OBJECT_ID      = 2026-041AA
CENTER_NAME    = EARTH
REF_FRAME      = TEME
TIME_SYSTEM    = UTC
MEAN_ELEMENT_THEORY = SGP/SGP4

EPOCH          = 2026-03-23T05:38:59.068032
MEAN_MOTION    = 15.81263766
ECCENTRICITY   = .00006093
INCLINATION    = 53.1585
RA_OF_ASC_NODE = 354.0436
ARG_OF_PERICENTER = 69.7220
MEAN_ANOMALY   = 290.3869

EPHEMERIS_TYPE = 0
CLASSIFICATION_TYPE = U
NORAD_CAT_ID   = 68064
ELEMENT_SET_NO = 999
REV_AT_EPOCH   = 336
BSTAR          = .29874652E-2
MEAN_MOTION_DOT = .646913E-2
MEAN_MOTION_DDOT = 0

CCSDS_OMM_VERS = 2.0
CREATION_DATE  = 
ORIGINATOR     = 

OBJECT_NAME    = STARLINK-36836
OBJECT_ID      = 2026-041AB
CENTER_NAME    = EARTH
REF_FRAME      = TEME
TIME_SYSTEM    = UTC
MEAN_ELEMENT_THEORY = SGP/SGP4

EPOCH          = 2026-03-23T04:05:49.970400
MEAN_MOTION    = 15.81019160
ECCENTRICITY   = .00006597
INCLINATION    = 53.1586
RA_OF_ASC_NODE = 354.3502
ARG_OF_PERICENTER = 99.5905
MEAN_ANOMALY   = 260.5192

EPHEMERIS_TYPE = 0
CLASSIFICATION_TYPE = U
NORAD_CAT_ID   = 68065
ELEMENT_SET_NO = 999
REV_AT_EPOCH   = 335
BSTAR          = .16445418E-2
MEAN_MOTION_DOT = .339249E-2
MEAN_MOTION_DDOT = 0

CCSDS_OMM_VERS = 2.0
CREATION_DATE  = 
ORIGINATOR     = 

OBJECT_NAME    = STARLINK-36976
OBJECT_ID      = 2026-041AC
CENTER_NAME    = EARTH
REF_FRAME      = TEME
TIME_SYSTEM    = UTC
MEAN_ELEMENT_THEORY = SGP/SGP4

EPOCH          = 2026-03-23T03:07:09.775200
MEAN_MOTION    = 15.75319077
ECCENTRICITY   = .00016548
INCLINATION    = 53.1585
RA_OF_ASC_NODE = 354.8167
ARG_OF_PERICENTER = 91.7258
MEAN_ANOMALY   = 268.3952

EPHEMERIS_TYPE = 0
CLASSIFICATION_TYPE = U
NORAD_CAT_ID   = 68066
ELEMENT_SET_NO = 999
REV_AT_EPOCH   = 334
BSTAR          = .15188556E-2
MEAN_MOTION_DOT = .239737E-2
MEAN_MOTION_DDOT = 0

CCSDS_OMM_VERS = 2.0
CREATION_DATE  = 
ORIGINATOR     = 

OBJECT_NAME    = STARLINK-36929
OBJECT_ID      = 2026-041AD
CENTER_NAME    = EARTH
REF_FRAME      = TEME
TIME_SYSTEM    = UTC
MEAN_ELEMENT_THEORY = SGP/SGP4

EPOCH          = 2026-03-23T00:10:30.406368
MEAN_MOTION    = 15.75234194
ECCENTRICITY   = .00014105
INCLINATION    = 53.1593
RA_OF_ASC_NODE = 355.4759
ARG_OF_PERICENTER = 25.9810
MEAN_ANOMALY   = 334.1281

EPHEMERIS_TYPE = 0
CLASSIFICATION_TYPE = U
NORAD_CAT_ID   = 68067
ELEMENT_SET_NO = 999
REV_AT_EPOCH   = 332
BSTAR          = .33360763E-2
MEAN_MOTION_DOT = .545E-2
MEAN_MOTION_DDOT = 0

CCSDS_OMM_VERS = 2.0
CREATION_DATE  = 
ORIGINATOR     = 

OBJECT_NAME    = STARLINK-36990
OBJECT_ID      = 2026-041AE
CENTER_NAME    = EARTH
REF_FRAME      = TEME
TIME_SYSTEM    = UTC
MEAN_ELEMENT_THEORY = SGP/SGP4

EPOCH          = 2026-03-23T07:05:43.893024
MEAN_MOTION    = 15.81051199
ECCENTRICITY   = .00007947
INCLINATION    = 53.1589
RA_OF_ASC_NODE = 353.7061
ARG_OF_PERICENTER = 30.6523
MEAN_ANOMALY   = 329.4546

EPHEMERIS_TYPE = 0
CLASSIFICATION_TYPE = U
NORAD_CAT_ID   = 68068
ELEMENT_SET_NO = 999
REV_AT_EPOCH   = 337
BSTAR          = .1515701E-2
MEAN_MOTION_DOT = .312076E-2
MEAN_MOTION_DDOT = 0

CCSDS_OMM_VERS = 2.0
CREATION_DATE  = 
ORIGINATOR     = 

OBJECT_NAME    = STARLINK-36766
OBJECT_ID      = 2026-042A
CENTER_NAME    = EARTH
REF_FRAME      = TEME
TIME_SYSTEM    = UTC
MEAN_ELEMENT_THEORY = SGP/SGP4

EPOCH          = 2026-03-23T05:24:15.701472
MEAN_MOTION    = 15.81030771
ECCENTRICITY   = .00008269
INCLINATION    = 53.1573
RA_OF_ASC_NODE = 126.9434
ARG_OF_PERICENTER = 81.5752
MEAN_ANOMALY   = 278.5364

EPHEMERIS_TYPE = 0
CLASSIFICATION_TYPE = U
NORAD_CAT_ID   = 68069
ELEMENT_SET_NO = 999
REV_AT_EPOCH   = 422
BSTAR          = .18702784E-2
MEAN_MOTION_DOT = .388352E-2
MEAN_MOTION_DDOT = 0

CCSDS_OMM_VERS = 2.0
CREATION_DATE  = 
ORIGINATOR     = 

OBJECT_NAME    = STARLINK-36823
OBJECT_ID      = 2026-042B
CENTER_NAME    = EARTH
REF_FRAME      = TEME
TIME_SYSTEM    = UTC
MEAN_ELEMENT_THEORY = SGP/SGP4

EPOCH          = 2026-03-23T03:52:08.912928
MEAN_MOTION    = 15.81215590
ECCENTRICITY   = .0001034
INCLINATION    = 53.1571
RA_OF_ASC_NODE = 127.2546
ARG_OF_PERICENTER = 195.8185
MEAN_ANOMALY   = 164.2806

EPHEMERIS_TYPE = 0
CLASSIFICATION_TYPE = U
NORAD_CAT_ID   = 68070
ELEMENT_SET_NO = 999
REV_AT_EPOCH   = 421
BSTAR          = .34933435E-2
MEAN_MOTION_DOT = .765502E-2
MEAN_MOTION_DDOT = 0

